{"type": "FeatureCollection", "features": [ {"type": "Feature", "properties": {"norad_id": 35469, "name": "COSMOS 2251 DEB", "group": "cosmos-2251-debris", "lat": -9.665001234193028, "lon": 6.832649922924774, "alt_km": 784.0333760456997, "timestamp": "2025-12-20T07:33:51.209204+00:00", "meta": {"OBJECT_NAME": "COSMOS 2251 DEB", "OBJECT_ID": "1993-036ALP", "EPOCH": "2025-12-19T18:21:45.886752", "MEAN_MOTION": 14.49825287, "ECCENTRICITY": 0.00765899, "INCLINATION": 74.0168, "RA_OF_ASC_NODE": 10.664, "ARG_OF_PERICENTER": 164.3143, "MEAN_ANOMALY": 196.0417, "EPHEMERIS_TYPE": 0, "CLASSIFICATION_TYPE": "U", "NORAD_CAT_ID": 35469, "ELEMENT_SET_NO": 999, "REV_AT_EPOCH": 88213, "BSTAR": 6.6708162e-05, "MEAN_MOTION_DOT": 2.38e-06, "MEAN_MOTION_DDOT": 0}, "tle": {"line1": "1 35469U 93036ALP 25353.76511443  .00000238  00000+0  66708-4 0  9990", "line2": "2 35469  74.0168  10.6640 0076589 164.3143 196.0417 14.49825287882139"}}, "geometry": {"type": "Point", "coordinates": [6.832649922924774, -9.665001234193028]}}, {"type": "Feature", "properties": {"norad_id": 35475, "name": "COSMOS 2251 DEB", "group": "cosmos-2251-debris", "lat": 26.79141183680737, "lon": 159.24846069760167, "alt_km": 673.8664611876784, "timestamp": "2025-12-20T07:33:51.209213+00:00", "meta": {"OBJECT_NAME": "COSMOS 2251 DEB", "OBJECT_ID": "1993-036ALV", "EPOCH": "2025-12-19T18:22:09.184512", "MEAN_MOTION": 14.69869969, "ECCENTRICITY": 0.00202905, "INCLINATION": 74.0212, "RA_OF_ASC_NODE": 151.9956, "ARG_OF_PERICENTER": 224.7344, "MEAN_ANOMALY": 135.2192, "EPHEMERIS_TYPE": 0, "CLASSIFICATION_TYPE": "U", "NORAD_CAT_ID": 35475, "ELEMENT_SET_NO": 999, "REV_AT_EPOCH": 65720, "BSTAR": 0.0012952921, "MEAN_MOTION_DOT": 7.746e-05, "MEAN_MOTION_DDOT": 0}, "tle": {"line1": "1 35475U 93036ALV 25353.76538408  .00007746  00000+0  12953-2 0  9999", "line2": "2 35475  74.0212 151.9956 0020290 224.7344 135.2192 14.69869969657207"}}, "geometry": {"type": "Point", "coordinates": [159.24846069760167, 26.79141183680737]}}, {"type": "Feature", "properties": {"norad_id": 35476, "name": "COSMOS 2251 DEB", "group": "cosmos-2251-debris", "lat": 34.46904719009826, "lon": 57.41888688198726, "alt_km": 627.591585947478, "timestamp": "2025-12-20T07:33:51.209224+00:00", "meta": {"OBJECT_NAME": "COSMOS 2251 DEB", "OBJECT_ID": "1993-036ALW", "EPOCH": "2025-12-18T23:09:20.948256", "MEAN_MOTION": 14.75799485, "ECCENTRICITY": 0.00180044, "INCLINATION": 73.9783, "RA_OF_ASC_NODE": 48.6925, "ARG_OF_PERICENTER": 27.387, "MEAN_ANOMALY": 37.4197, "EPHEMERIS_TYPE": 0, "CLASSIFICATION_TYPE": "U", "NORAD_CAT_ID": 35476, "ELEMENT_SET_NO": 999, "REV_AT_EPOCH": 87979, "BSTAR": 0.0011118951, "MEAN_MOTION_DOT": 7.616e-05, "MEAN_MOTION_DDOT": 0}, "tle": {"line1": "1 35476U 93036ALW 25352.96482579  .00007616  00000+0  11119-2 0  9997", "line2": "2 35476  73.9783  48.6925 0018004  27.3870  37.4197 14.75799485879798"}}, "geometry": {"type": "Point", "coordinates": [57.41888688198726, 34.46904719009826]}}, {"type": "Feature", "properties": {"norad_id": 35580, "name": "COSMOS 2251 DEB", "group": "cosmos-2251-debris", "lat": 27.04618503415455, "lon": -22.63751211184417, "alt_km": 752.1819401250032, "timestamp": "2025-12-20T07:33:51.209233+00:00", "meta": {"OBJECT_NAME": "COSMOS 2251 DEB", "OBJECT_ID": "1993-036ALX", "EPOCH": "2025-12-18T20:08:01.258944", "MEAN_MOTION": 13.83900216, "ECCENTRICITY": 0.02809393, "INCLINATION": 73.9004, "RA_OF_ASC_NODE": 168.3514, "ARG_OF_PERICENTER": 172.4097, "MEAN_ANOMALY": 188.1422, "EPHEMERIS_TYPE": 0, "CLASSIFICATION_TYPE": "U", "NORAD_CAT_ID": 35580, "ELEMENT_SET_NO": 999, "REV_AT_EPOCH": 62341, "BSTAR": 0.0016080562, "MEAN_MOTION_DOT": 2.398e-05, "MEAN_MOTION_DDOT": 0}, "tle": {"line1": "1 35580U 93036ALX 25352.83890346  .00002398  00000+0  16081-2 0  9999", "line2": "2 35580  73.9004 168.3514 0280939 172.4097 188.1422 13.83900216623410"}}, "geometry": {"type": "Point", "coordinates": [-22.63751211184417, 27.04618503415455]}}, {"type": "Feature", "properties": {"norad_id": 35583, "name": "COSMOS 2251 DEB", "group": "cosmos-2251-debris", "lat": 31.946931868412022, "lon": 9.375326845527788, "alt_km": 971.7780707307393, "timestamp": "2025-12-20T07:33:51.209243+00:00", "meta": {"OBJECT_NAME": "COSMOS 2251 DEB", "OBJECT_ID": "1993-036AMA", "EPOCH": "2025-12-18T06:58:43.029120", "MEAN_MOTION": 13.55345124, "ECCENTRICITY": 0.0385225, "INCLINATION": 73.916, "RA_OF_ASC_NODE": 203.0196, "ARG_OF_PERICENTER": 226.35, "MEAN_ANOMALY": 130.5073, "EPHEMERIS_TYPE": 0, "CLASSIFICATION_TYPE": "U", "NORAD_CAT_ID": 35583, "ELEMENT_SET_NO": 999, "REV_AT_EPOCH": 82487, "BSTAR": 0.00067393273, "MEAN_MOTION_DOT": 7.28e-06, "MEAN_MOTION_DDOT": 0}, "tle": {"line1": "1 35583U 93036AMA 25352.29077580  .00000728  00000+0  67393-3 0  9997", "line2": "2 35583  73.9160 203.0196 0385225 226.3500 130.5073 13.55345124824877"}}, "geometry": {"type": "Point", "coordinates": [9.375326845527788, 31.946931868412022]}}, {"type": "Feature", "properties": {"norad_id": 35585, "name": "COSMOS 2251 DEB", "group": "cosmos-2251-debris", "lat": -64.25117103621206, "lon": -60.81678761881723, "alt_km": 819.6993224750386, "timestamp": "2025-12-20T07:33:51.209254+00:00", "meta": {"OBJECT_NAME": "COSMOS 2251 DEB", "OBJECT_ID": "1993-036AMC", "EPOCH": "2025-12-18T09:07:12.258336", "MEAN_MOTION": 13.75264082, "ECCENTRICITY": 0.03105119, "INCLINATION": 73.9723, "RA_OF_ASC_NODE": 338.9941, "ARG_OF_PERICENTER": 250.1355, "MEAN_ANOMALY": 180.5614, "EPHEMERIS_TYPE": 0, "CLASSIFICATION_TYPE": "U", "NORAD_CAT_ID": 35585, "ELEMENT_SET_NO": 999, "REV_AT_EPOCH": 64141, "BSTAR": 0.00084480695, "MEAN_MOTION_DOT": 1.126e-05, "MEAN_MOTION_DDOT": 0}, "tle": {"line1": "1 35585U 93036AMC 25352.38000299  .00001126  00000+0  84481-3 0  9992", "line2": "2 35585  73.9723 338.9941 0310511 250.1355 180.5614 13.75264082641417"}}, "geometry": {"type": "Point", "coordinates": [-60.81678761881723, -64.25117103621206]}}, {"type": "Feature", "properties": {"norad_id": 35586, "name": "COSMOS 2251 DEB", "group": "cosmos-2251-debris", "lat": -27.24928214049258, "lon": 118.82825453723238, "alt_km": 848.6018214894812, "timestamp": "2025-12-20T07:33:51.209264+00:00", "meta": {"OBJECT_NAME": "COSMOS 2251 DEB", "OBJECT_ID": "1993-036AMD", "EPOCH": "2025-12-18T14:35:36.885984", "MEAN_MOTION": 13.5208875, "ECCENTRICITY": 0.04044314, "INCLINATION": 74.0204, "RA_OF_ASC_NODE": 293.076, "ARG_OF_PERICENTER": 167.1463, "MEAN_ANOMALY": 11.7227, "EPHEMERIS_TYPE": 0, "CLASSIFICATION_TYPE": "U", "NORAD_CAT_ID": 35586, "ELEMENT_SET_NO": 999, "REV_AT_EPOCH": 60461, "BSTAR": 0.00023975249, "MEAN_MOTION_DOT": 2.44e-06, "MEAN_MOTION_DDOT": 0}, "tle": {"line1": "1 35586U 93036AMD 25352.60806581  .00000244  00000+0  23975-3 0  9997", "line2": "2 35586  74.0204 293.0760 0404431 167.1463  11.7227 13.52088750604613"}}, "geometry": {"type": "Point", "coordinates": [118.82825453723238, -27.24928214049258]}}, {"type": "Feature", "properties": {"norad_id": 35587, "name": "COSMOS 2251 DEB", "group": "cosmos-2251-debris", "lat": 73.7923601635154, "lon": 124.3637686149864, "alt_km": 705.390559130893, "timestamp": "2025-12-20T07:33:51.209274+00:00", "meta": {"OBJECT_NAME": "COSMOS 2251 DEB", "OBJECT_ID": "1993-036AME", "EPOCH": "2025-12-19T21:22:17.269824", "MEAN_MOTION": 14.71544302, "ECCENTRICITY": 0.01023917, "INCLINATION": 74.0049, "RA_OF_ASC_NODE": 44.4984, "ARG_OF_PERICENTER": 230.5816, "MEAN_ANOMALY": 128.6259, "EPHEMERIS_TYPE": 0, "CLASSIFICATION_TYPE": "U", "NORAD_CAT_ID": 35587, "ELEMENT_SET_NO": 999, "REV_AT_EPOCH": 66451, "BSTAR": 0.00018067411, "MEAN_MOTION_DOT": 1.181e-05, "MEAN_MOTION_DDOT": 0}, "tle": {"line1": "1 35587U 93036AME 25353.89047766  .00001181  00000+0  18067-3 0  9999", "line2": "2 35587  74.0049  44.4984 0102391 230.5816 128.6259 14.71544302664514"}}, "geometry": {"type": "Point", "coordinates": [124.3637686149864, 73.7923601635154]}}, {"type": "Feature", "properties": {"norad_id": 35593, "name": "COSMOS 2251 DEB", "group": "cosmos-2251-debris", "lat": 46.91446564899441, "lon": -67.42247022960734, "alt_km": 849.9937032926791, "timestamp": "2025-12-20T07:33:51.209284+00:00", "meta": {"OBJECT_NAME": "COSMOS 2251 DEB", "OBJECT_ID": "1993-036AML", "EPOCH": "2025-12-16T02:16:58.534752", "MEAN_MOTION": 14.25610716, "ECCENTRICITY": 0.01051822, "INCLINATION": 74.086, "RA_OF_ASC_NODE": 282.4096, "ARG_OF_PERICENTER": 288.161, "MEAN_ANOMALY": 70.8107, "EPHEMERIS_TYPE": 0, "CLASSIFICATION_TYPE": "U", "NORAD_CAT_ID": 35593, "ELEMENT_SET_NO": 999, "REV_AT_EPOCH": 85113, "BSTAR": 0.00056549388, "MEAN_MOTION_DOT": 1.393e-05, "MEAN_MOTION_DDOT": 0}, "tle": {"line1": "1 35593U 93036AML 25350.09512193  .00001393  00000+0  56549-3 0  9998", "line2": "2 35593  74.0860 282.4096 0105182 288.1610  70.8107 14.25610716851130"}}, "geometry": {"type": "Point", "coordinates": [-67.42247022960734, 46.91446564899441]}}, {"type": "Feature", "properties": {"norad_id": 35594, "name": "COSMOS 2251 DEB", "group": "cosmos-2251-debris", "lat": -66.94572478309146, "lon": -45.724623600116026, "alt_km": 597.6859941018356, "timestamp": "2025-12-20T07:33:51.209294+00:00", "meta": {"OBJECT_NAME": "COSMOS 2251 DEB", "OBJECT_ID": "1993-036AMM", "EPOCH": "2025-12-17T17:07:08.312160", "MEAN_MOTION": 14.88085261, "ECCENTRICITY": 0.00295539, "INCLINATION": 73.8085, "RA_OF_ASC_NODE": 96.479, "ARG_OF_PERICENTER": 207.6965, "MEAN_ANOMALY": 152.2642, "EPHEMERIS_TYPE": 0, "CLASSIFICATION_TYPE": "U", "NORAD_CAT_ID": 35594, "ELEMENT_SET_NO": 999, "REV_AT_EPOCH": 88259, "BSTAR": 0.0013790172, "MEAN_MOTION_DOT": 0.00012773, "MEAN_MOTION_DDOT": 0}, "tle": {"line1": "1 35594U 93036AMM 25351.71329065  .00012773  00000+0  13790-2 0  9997", "line2": "2 35594  73.8085  96.4790 0029553 207.6965 152.2642 14.88085261882590"}}, "geometry": {"type": "Point", "coordinates": [-45.724623600116026, -66.94572478309146]}}]}